{
  "norad_id": 57495,
  "name": "STARLINK-30154",
  "history": [
    {
      "epoch": "2026-03-28T11:56:49.002432",
      "apogee_km": 484.1434710858548,
      "perigee_km": 481.9643568515785,
      "latitude_deg": 2.182102805313995,
      "longitude_deg": -22.712219519773498,
      "semi_major_axis_km": 6861.190913968717,
      "eccentricity": 0.0001588,
      "inclination_deg": 43.0008,
      "raan_deg": 269.6725,
      "arg_perigee_deg": 272.4299,
      "mean_anomaly_deg": 87.6371,
      "mean_motion_rev_day": 15.27578391
    },
    {
      "epoch": "2026-03-28T22:55:54.938208",
      "apogee_km": 484.3737736140365,
      "perigee_km": 481.7774907540188,
      "latitude_deg": 38.14424150537617,
      "longitude_deg": 21.22770912013948,
      "semi_major_axis_km": 6861.212632184028,
      "eccentricity": 0.0001892,
      "inclination_deg": 43.0015,
      "raan_deg": 267.0859,
      "arg_perigee_deg": 257.6826,
      "mean_anomaly_deg": 102.3814,
      "mean_motion_rev_day": 15.27571138
    }
  ]
}